LEMUR-2-DEMBITZ         
1 42842U 17042T   26068.47492167  .00020231  00000+0  76561-3 0  9991
2 42842  97.3807 250.9241 0006961  17.1421 343.0051 15.26947128473114
STARLINK-30254          
1 57533U 23115N   26068.45178042 -.00000615  00000+0 -12825-4 0  9993
2 57533  42.9999 104.5001 0001162 262.3501  97.7219 15.27574266145322
